0 COSMOS 872
1 09589U 76118B   13280.69056365  .00000014  00000-0  17537-3 0  7638
2 09589 074.0285 097.8383 0041229 084.1624 349.6314 12.58037626691725
0 COSMOS 872
1 09589U 76118B   13282.84413231  .00000019  00000-0  20675-3 0  7649
2 09589 074.0286 094.9330 0041227 080.8183 023.0643 12.58037659691990
0 COSMOS 872
1 09589U 76118B   13287.52536501 -.00000043  00000-0 -15699-3 0  7666
2 09589 074.0294 088.6176 0041258 073.5446 344.1995 12.58038410692581
0 COSMOS 872
1 09589U 76118B   13289.84268491 -.00000031  00000-0 -86680-4 0  7670
2 09589 074.0301 085.4915 0041268 069.9555 039.2517 12.58038211692870
0 COSMOS 872
1 09589U 76118B   13292.14934125 -.00000005  00000-0  62566-4 0  7689
2 09589 074.0305 082.3800 0041302 066.3936 045.9975 12.58037955693165
0 COSMOS 872
1 09589U 76118B   13294.45319587  .00000004  00000-0  12097-3 0  7696
2 09589 074.0307 079.2723 0041293 062.8153 040.0726 12.58037892693459
